CCSDS_OMM_VERS = 2.0
CREATION_DATE  = 
ORIGINATOR     = 

OBJECT_NAME    = STARLINK-36698
OBJECT_ID      = 2026-025S
CENTER_NAME    = EARTH
REF_FRAME      = TEME
TIME_SYSTEM    = UTC
MEAN_ELEMENT_THEORY = SGP/SGP4

EPOCH          = 2026-02-22T04:00:01.999584
MEAN_MOTION    = 15.85100848
ECCENTRICITY   = .0001764
INCLINATION    = 97.2698
RA_OF_ASC_NODE = 163.9940
ARG_OF_PERICENTER = 65.7417
MEAN_ANOMALY   = 76.4880

EPHEMERIS_TYPE = 0
CLASSIFICATION_TYPE = U
NORAD_CAT_ID   = 67709
ELEMENT_SET_NO = 999
REV_AT_EPOCH   = 335
BSTAR          = -.74536E-2
MEAN_MOTION_DOT = -.1538902E-1
MEAN_MOTION_DDOT = 0

CCSDS_OMM_VERS = 2.0
CREATION_DATE  = 
ORIGINATOR     = 

OBJECT_NAME    = STARLINK-36344
OBJECT_ID      = 2026-025T
CENTER_NAME    = EARTH
REF_FRAME      = TEME
TIME_SYSTEM    = UTC
MEAN_ELEMENT_THEORY = SGP/SGP4

EPOCH          = 2026-02-22T04:00:01.999584
MEAN_MOTION    = 15.84390107
ECCENTRICITY   = .0001772
INCLINATION    = 97.2706
RA_OF_ASC_NODE = 163.9844
ARG_OF_PERICENTER = 70.6670
MEAN_ANOMALY   = 49.9803

EPHEMERIS_TYPE = 0
CLASSIFICATION_TYPE = U
NORAD_CAT_ID   = 67710
ELEMENT_SET_NO = 999
REV_AT_EPOCH   = 351
BSTAR          = -.78434E-2
MEAN_MOTION_DOT = -.1561787E-1
MEAN_MOTION_DDOT = 0

CCSDS_OMM_VERS = 2.0
CREATION_DATE  = 
ORIGINATOR     = 

OBJECT_NAME    = STARLINK-36687
OBJECT_ID      = 2026-025U
CENTER_NAME    = EARTH
REF_FRAME      = TEME
TIME_SYSTEM    = UTC
MEAN_ELEMENT_THEORY = SGP/SGP4

EPOCH          = 2026-02-22T04:00:01.999584
MEAN_MOTION    = 15.84717271
ECCENTRICITY   = .0001936
INCLINATION    = 97.2702
RA_OF_ASC_NODE = 163.9890
ARG_OF_PERICENTER = 65.5383
MEAN_ANOMALY   = 65.1821

EPHEMERIS_TYPE = 0
CLASSIFICATION_TYPE = U
NORAD_CAT_ID   = 67711
ELEMENT_SET_NO = 999
REV_AT_EPOCH   = 351
BSTAR          = -.76464E-2
MEAN_MOTION_DOT = -.1548619E-1
MEAN_MOTION_DDOT = 0

CCSDS_OMM_VERS = 2.0
CREATION_DATE  = 
ORIGINATOR     = 

OBJECT_NAME    = STARLINK-36705
OBJECT_ID      = 2026-025V
CENTER_NAME    = EARTH
REF_FRAME      = TEME
TIME_SYSTEM    = UTC
MEAN_ELEMENT_THEORY = SGP/SGP4

EPOCH          = 2026-02-22T04:00:01.999584
MEAN_MOTION    = 15.85502369
ECCENTRICITY   = .0001592
INCLINATION    = 97.2691
RA_OF_ASC_NODE = 163.9983
ARG_OF_PERICENTER = 66.0229
MEAN_ANOMALY   = 88.2111

EPHEMERIS_TYPE = 0
CLASSIFICATION_TYPE = U
NORAD_CAT_ID   = 67712
ELEMENT_SET_NO = 999
REV_AT_EPOCH   = 341
BSTAR          = -.72717E-2
MEAN_MOTION_DOT = -.1531624E-1
MEAN_MOTION_DDOT = 0

CCSDS_OMM_VERS = 2.0
CREATION_DATE  = 
ORIGINATOR     = 

OBJECT_NAME    = STARLINK-36708
OBJECT_ID      = 2026-025W
CENTER_NAME    = EARTH
REF_FRAME      = TEME
TIME_SYSTEM    = UTC
MEAN_ELEMENT_THEORY = SGP/SGP4

EPOCH          = 2026-02-22T04:00:01.999584
MEAN_MOTION    = 15.86458839
ECCENTRICITY   = .0001822
INCLINATION    = 97.2690
RA_OF_ASC_NODE = 164.0111
ARG_OF_PERICENTER = 66.9540
MEAN_ANOMALY   = 115.8264

EPHEMERIS_TYPE = 0
CLASSIFICATION_TYPE = U
NORAD_CAT_ID   = 67713
ELEMENT_SET_NO = 999
REV_AT_EPOCH   = 341
BSTAR          = -.68838E-2
MEAN_MOTION_DOT = -.1489797E-1
MEAN_MOTION_DDOT = 0

CCSDS_OMM_VERS = 2.0
CREATION_DATE  = 
ORIGINATOR     = 

OBJECT_NAME    = STARLINK-36702
OBJECT_ID      = 2026-025X
CENTER_NAME    = EARTH
REF_FRAME      = TEME
TIME_SYSTEM    = UTC
MEAN_ELEMENT_THEORY = SGP/SGP4

EPOCH          = 2026-02-22T04:00:01.999584
MEAN_MOTION    = 15.86168667
ECCENTRICITY   = .0001823
INCLINATION    = 97.2690
RA_OF_ASC_NODE = 164.0072
ARG_OF_PERICENTER = 64.8520
MEAN_ANOMALY   = 109.3173

EPHEMERIS_TYPE = 0
CLASSIFICATION_TYPE = U
NORAD_CAT_ID   = 67714
ELEMENT_SET_NO = 999
REV_AT_EPOCH   = 314
BSTAR          = -.69735E-2
MEAN_MOTION_DOT = -.1519117E-1
MEAN_MOTION_DDOT = 0

CCSDS_OMM_VERS = 2.0
CREATION_DATE  = 
ORIGINATOR     = 

OBJECT_NAME    = STARLINK-36718
OBJECT_ID      = 2026-025Y
CENTER_NAME    = EARTH
REF_FRAME      = TEME
TIME_SYSTEM    = UTC
MEAN_ELEMENT_THEORY = SGP/SGP4

EPOCH          = 2026-02-22T04:00:01.999584
MEAN_MOTION    = 15.87153242
ECCENTRICITY   = .0001592
INCLINATION    = 97.2694
RA_OF_ASC_NODE = 164.0207
ARG_OF_PERICENTER = 74.0986
MEAN_ANOMALY   = 129.1831

EPHEMERIS_TYPE = 0
CLASSIFICATION_TYPE = U
NORAD_CAT_ID   = 67715
ELEMENT_SET_NO = 999
REV_AT_EPOCH   = 335
BSTAR          = -.65773E-2
MEAN_MOTION_DOT = -.1475139E-1
MEAN_MOTION_DDOT = 0

CCSDS_OMM_VERS = 2.0
CREATION_DATE  = 
ORIGINATOR     = 

OBJECT_NAME    = STARLINK-36715
OBJECT_ID      = 2026-025Z
CENTER_NAME    = EARTH
REF_FRAME      = TEME
TIME_SYSTEM    = UTC
MEAN_ELEMENT_THEORY = SGP/SGP4

EPOCH          = 2026-02-22T04:00:01.999584
MEAN_MOTION    = 15.86828801
ECCENTRICITY   = .0001748
INCLINATION    = 97.2689
RA_OF_ASC_NODE = 164.0160
ARG_OF_PERICENTER = 67.2826
MEAN_ANOMALY   = 126.3710

EPHEMERIS_TYPE = 0
CLASSIFICATION_TYPE = U
NORAD_CAT_ID   = 67716
ELEMENT_SET_NO = 999
REV_AT_EPOCH   = 341
BSTAR          = -.67476E-2
MEAN_MOTION_DOT = -.1487464E-1
MEAN_MOTION_DDOT = 0

CCSDS_OMM_VERS = 2.0
CREATION_DATE  = 
ORIGINATOR     = 

OBJECT_NAME    = STARLINK-36385
OBJECT_ID      = 2026-025AA
CENTER_NAME    = EARTH
REF_FRAME      = TEME
TIME_SYSTEM    = UTC
MEAN_ELEMENT_THEORY = SGP/SGP4

EPOCH          = 2026-02-22T04:00:01.999584
MEAN_MOTION    = 15.85821078
ECCENTRICITY   = .0001863
INCLINATION    = 97.2695
RA_OF_ASC_NODE = 164.0032
ARG_OF_PERICENTER = 62.3891
MEAN_ANOMALY   = 101.4272

EPHEMERIS_TYPE = 0
CLASSIFICATION_TYPE = U
NORAD_CAT_ID   = 67717
ELEMENT_SET_NO = 999
REV_AT_EPOCH   = 341
BSTAR          = -.71203E-2
MEAN_MOTION_DOT = -.1524361E-1
MEAN_MOTION_DDOT = 0

CCSDS_OMM_VERS = 2.0
CREATION_DATE  = 
ORIGINATOR     = 

OBJECT_NAME    = CZ-2F DEB
OBJECT_ID      = 2026-024E
CENTER_NAME    = EARTH
REF_FRAME      = TEME
TIME_SYSTEM    = UTC
MEAN_ELEMENT_THEORY = SGP/SGP4

EPOCH          = 2026-02-22T04:21:38.485152
MEAN_MOTION    = 15.18667409
ECCENTRICITY   = .0253944
INCLINATION    = 50.3140
RA_OF_ASC_NODE = 94.5464
ARG_OF_PERICENTER = 219.0131
MEAN_ANOMALY   = 139.2266

EPHEMERIS_TYPE = 0
CLASSIFICATION_TYPE = U
NORAD_CAT_ID   = 67718
ELEMENT_SET_NO = 999
REV_AT_EPOCH   = 227
BSTAR          = .39112E-2
MEAN_MOTION_DOT = .201157E-2
MEAN_MOTION_DDOT = 0

CCSDS_OMM_VERS = 2.0
CREATION_DATE  = 
ORIGINATOR     = 

OBJECT_NAME    = CZ-2F DEB
OBJECT_ID      = 2026-024F
CENTER_NAME    = EARTH
REF_FRAME      = TEME
TIME_SYSTEM    = UTC
MEAN_ELEMENT_THEORY = SGP/SGP4

EPOCH          = 2026-02-22T04:08:00.823200
MEAN_MOTION    = 14.98752648
ECCENTRICITY   = .0328318
INCLINATION    = 49.7900
RA_OF_ASC_NODE = 96.3328
ARG_OF_PERICENTER = 209.2839
MEAN_ANOMALY   = 148.9345

EPHEMERIS_TYPE = 0
CLASSIFICATION_TYPE = U
NORAD_CAT_ID   = 67719
ELEMENT_SET_NO = 999
REV_AT_EPOCH   = 191
BSTAR          = .37096E-2
MEAN_MOTION_DOT = .146988E-2
MEAN_MOTION_DDOT = 0

CCSDS_OMM_VERS = 2.0
CREATION_DATE  = 
ORIGINATOR     = 

OBJECT_NAME    = CZ-2F DEB
OBJECT_ID      = 2026-024G
CENTER_NAME    = EARTH
REF_FRAME      = TEME
TIME_SYSTEM    = UTC
MEAN_ELEMENT_THEORY = SGP/SGP4

EPOCH          = 2026-02-22T03:10:23.489184
MEAN_MOTION    = 14.96081305
ECCENTRICITY   = .0339023
INCLINATION    = 49.8298
RA_OF_ASC_NODE = 96.8305
ARG_OF_PERICENTER = 205.5813
MEAN_ANOMALY   = 152.8012

EPHEMERIS_TYPE = 0
CLASSIFICATION_TYPE = U
NORAD_CAT_ID   = 67720
ELEMENT_SET_NO = 999
REV_AT_EPOCH   = 222
BSTAR          = .37803E-2
MEAN_MOTION_DOT = .145863E-2
MEAN_MOTION_DDOT = 0

