STARLINK-36698          
1 67709U 26025S   26053.16668981 -.01538902  00000+0 -74536-2 0  9991
2 67709  97.2698 163.9940 0001764  65.7417  76.4880 15.85100848  3356
STARLINK-36344          
1 67710U 26025T   26053.16668981 -.01561787  00000+0 -78434-2 0  9991
2 67710  97.2706 163.9844 0001772  70.6670  49.9803 15.84390107  3512
STARLINK-36687          
1 67711U 26025U   26053.16668981 -.01548619  00000+0 -76464-2 0  9992
2 67711  97.2702 163.9890 0001936  65.5383  65.1821 15.84717271  3511
STARLINK-36705          
1 67712U 26025V   26053.16668981 -.01531624  00000+0 -72717-2 0  9998
2 67712  97.2691 163.9983 0001592  66.0229  88.2111 15.85502369  3413
STARLINK-36708          
1 67713U 26025W   26053.16668981 -.01489797  00000+0 -68838-2 0  9991
2 67713  97.2690 164.0111 0001822  66.9540 115.8264 15.86458839  3418
STARLINK-36702          
1 67714U 26025X   26053.16668981 -.01519117  00000+0 -69735-2 0  9999
2 67714  97.2690 164.0072 0001823  64.8520 109.3173 15.86168667  3145
STARLINK-36718          
1 67715U 26025Y   26053.16668981 -.01475139  00000+0 -65773-2 0  9993
2 67715  97.2694 164.0207 0001592  74.0986 129.1831 15.87153242  3350
STARLINK-36715          
1 67716U 26025Z   26053.16668981 -.01487464  00000+0 -67476-2 0  9990
2 67716  97.2689 164.0160 0001748  67.2826 126.3710 15.86828801  3414
STARLINK-36385          
1 67717U 26025AA  26053.16668981 -.01524361  00000+0 -71203-2 0  9992
2 67717  97.2695 164.0032 0001863  62.3891 101.4272 15.85821078  3411
CZ-2F DEB               
1 67718U 26024E   26053.18169543  .00201157  00000+0  39112-2 0  9999
2 67718  50.3140  94.5464 0253944 219.0131 139.2266 15.18667409  2277
CZ-2F DEB               
1 67719U 26024F   26053.17223175  .00146988  00000+0  37096-2 0  9990
2 67719  49.7900  96.3328 0328318 209.2839 148.9345 14.98752648  1919
CZ-2F DEB               
1 67720U 26024G   26053.13221631  .00145863  00000+0  37803-2 0  9990
2 67720  49.8298  96.8305 0339023 205.5813 152.8012 14.96081305  2221
